NORAD_CAT_ID,OBJECT_NAME,OBJECT_TYPE,EPOCH,MEAN_MOTION,ECCENTRICITY,INCLINATION,RA_OF_ASC_NODE,ARG_OF_PERICENTER,MEAN_ANOMALY,BSTAR,MEAN_MOTION_DOT,MEAN_MOTION_DDOT,TLE_LINE0,TLE_LINE1,TLE_LINE2,SEMIMAJOR_AXIS,PERIOD,APOGEE,PERIGEE,DECAYED
49172.0,STARLINK-3091,PAYLOAD,2022-01-04 20:08:17,15.69737245,0.0003807,69.9983,169.959,270.8616,89.2143,-3.1654e-05,-3.988e-05,0.0,0 STARLINK-3091,1 49172U 21082AU  22004.83909049 -.00003988  00000-0 -31654-4 0  9999,2 49172  69.9983 169.9590 0003807 270.8616  89.2143 15.69737245 17796,6737.786,91.735,362.216,357.086,0.0
49172.0,STARLINK-3091,PAYLOAD,2022-01-05 06:00:00,15.69715147,0.0003764,69.9988,168.8037,274.6756,246.8358,0.00060297,0.00072294,0.0,0 STARLINK-3091,1 49172U 21082AU  22005.25001157  .00072294  00000-0  60297-3 0  9997,2 49172  69.9988 168.8037 0003764 274.6756 246.8358 15.69715147 17857,6737.849,91.736,362.25,357.17800000000005,0.0
49172.0,STARLINK-3091,PAYLOAD,2022-01-05 14:00:01,15.69810183,0.0003884,69.999,167.8671,274.8047,329.8125,-0.0011341,-0.00133817,0.0,0 STARLINK-3091,1 49172U 21082AU  22005.58334491 -.00133817  00000-0 -11341-2 0  9999,2 49172  69.9990 167.8671 0003884 274.8047 329.8125 15.69810183  3687,6737.5769999999975,91.731,362.059,356.825,0.0
49172.0,STARLINK-3091,PAYLOAD,2022-01-05 22:00:00,15.69698961,0.0004083,69.9986,166.93,280.1251,47.6378,0.00036423,0.00043409,0.0,0 STARLINK-3091,1 49172U 21082AU  22005.91667824  .00043409  00000-0  36423-3 0  9999,2 49172  69.9986 166.9300 0004083 280.1251  47.6378 15.69698961 17958,6737.895,91.737,362.511,357.009,0.0
49172.0,STARLINK-3091,PAYLOAD,2022-01-06 14:00:01,15.69753774,0.0004084,69.9991,165.0559,275.3685,218.5618,-0.00023672,-0.00028386,0.0,0 STARLINK-3091,1 49172U 21082AU  22006.58334491 -.00028386  00000-0 -23672-3 0  9995,2 49172  69.9991 165.0559 0004084 275.3685 218.5618 15.69753774 18061,6737.738,91.734,362.355,356.852,0.0
49172.0,STARLINK-3091,PAYLOAD,2022-01-06 22:00:00,15.69736531,0.0004074,69.999,164.1189,279.6707,297.3818,0.00028558,0.00034004,0.0,0 STARLINK-3091,1 49172U 21082AU  22006.91667824  .00034004  00000-0  28558-3 0  9991,2 49172  69.9990 164.1189 0004074 279.6707 297.3818 15.69736531  3681,6737.788000000001,91.735,362.398,356.908,0.0
49172.0,STARLINK-3091,PAYLOAD,2022-01-07 06:00:00,15.69716161,0.0003968,69.9991,163.1822,275.0424,25.1458,0.00067663,0.00081245,0.0,0 STARLINK-3091,1 49172U 21082AU  22007.25001157  .00081245  00000-0  67663-3 0  9999,2 49172  69.9991 163.1822 0003968 275.0424  25.1458 15.69716161 18165,6737.846,91.736,362.385,357.038,0.0
49172.0,STARLINK-3091,PAYLOAD,2022-01-07 14:00:01,15.69793451,0.0004058,69.9993,162.2455,276.0856,107.2164,-0.0003697,-0.00044202,0.0,0 STARLINK-3091,1 49172U 21082AU  22007.58334491 -.00044202  00000-0 -36970-3 0  9996,2 49172  69.9993 162.2455 0004058 276.0856 107.2164 15.69793451  3695,6737.625,91.732,362.224,356.756,0.0
49172.0,STARLINK-3091,PAYLOAD,2022-01-07 22:00:00,15.69747546,0.0003892,69.9998,161.317,277.0055,189.3056,-1.852e-06,-4.34e-06,0.0,0 STARLINK-3091,1 49172U 21082AU  22007.91667824 -.00000434  00000-0 -18520-5 0  9994,2 49172  69.9998 161.3170 0003892 277.0055 189.3056 15.69747546 18276,6737.755999999999,91.734,362.244,356.999,0.0
49172.0,STARLINK-3091,PAYLOAD,2022-01-08 06:00:00,15.69773024,0.0003967,69.9986,160.3712,275.0523,274.5876,-0.0001359,-0.00016422,0.0,0 STARLINK-3091,1 49172U 21082AU  22008.25001157 -.00016422  00000-0 -13590-3 0  9997,2 49172  69.9986 160.3712 0003967 275.0523 274.5876 15.69773024 18328,6737.683000000001,91.733,362.221,356.876,0.0
49172.0,STARLINK-3091,PAYLOAD,2022-01-08 14:00:01,15.69756278,0.0003854,69.9988,159.4341,276.887,355.9118,-0.00021308,-0.00025582,0.0,0 STARLINK-3091,1 49172U 21082AU  22008.58334491 -.00025582  00000-0 -21308-3 0  9996,2 49172  69.9988 159.4341 0003854 276.8870 355.9118 15.69756278  3662,6737.731,91.734,362.193,357.0,0.0
49172.0,STARLINK-3091,PAYLOAD,2022-01-08 22:00:00,15.69752204,0.0003844,69.9986,158.497,281.9787,73.9467,0.00016242,0.00019225,0.0,0 STARLINK-3091,1 49172U 21082AU  22008.91667824  .00019225  00000-0  16242-3 0  9998,2 49172  69.9986 158.4970 0003844 281.9787  73.9467 15.69752204  3681,6737.743,91.734,362.198,357.01800000000014,0.0
49172.0,STARLINK-3091,PAYLOAD,2022-01-09 06:00:00,15.69752821,0.0003649,69.9987,157.5603,276.46,162.6204,-1.7721e-05,-2.328e-05,0.0,0 STARLINK-3091,1 49172U 21082AU  22009.25001157 -.00002328  00000-0 -17721-4 0  9999,2 49172  69.9987 157.5603 0003649 276.4600 162.6204 15.69752821 18485,6737.741,91.734,362.065,357.148,0.0
49172.0,STARLINK-3091,PAYLOAD,2022-01-09 14:00:01,15.69750213,0.0003608,69.9989,156.6234,279.2023,243.011,-0.00013328,-0.00016094,0.0,0 STARLINK-3091,1 49172U 21082AU  22009.58334491 -.00016094  00000-0 -13328-3 0  9998,2 49172  69.9989 156.6234 0003608 279.2023 243.0110 15.69750213  3669,6737.749,91.734,362.045,357.18300000000005,0.0
49172.0,STARLINK-3091,PAYLOAD,2022-01-09 22:00:00,15.69751486,0.0003665,69.9981,155.6863,282.9132,322.4225,0.00018729,0.00022208,0.0,0 STARLINK-3091,1 49172U 21082AU  22009.91667824  .00022208  00000-0  18729-3 0  9996,2 49172  69.9981 155.6863 0003665 282.9132 322.4225 15.69751486  3676,6737.745,91.734,362.079,357.141,0.0
49172.0,STARLINK-3091,PAYLOAD,2022-01-10 14:00:01,15.69758107,0.0003542,69.9983,153.8122,280.0061,131.5917,-0.00076509,-0.00090604,0.0,0 STARLINK-3091,1 49172U 21082AU  22010.58334491 -.00090604  00000-0 -76509-3 0  9999,2 49172  69.9983 153.8122 0003542 280.0061 131.5917 15.69758107 18692,6737.726,91.734,361.978,357.205,0.0
49172.0,STARLINK-3091,PAYLOAD,2022-01-10 22:00:00,15.69701174,0.0003644,69.998,152.8752,284.0984,210.6031,-0.00014003,-0.00016863,0.0,0 STARLINK-3091,1 49172U 21082AU  22010.91667824 -.00016863  00000-0 -14003-3 0  9991,2 49172  69.9980 152.8752 0003644 284.0984 210.6031 15.69701174  3689,6737.889,91.737,362.209,357.2990000000001,0.0
49172.0,STARLINK-3091,PAYLOAD,2022-01-11 06:00:00,15.69651004,0.0003617,69.9982,151.9384,278.1825,299.5869,0.00082858,0.00099481,0.0,0 STARLINK-3091,1 49172U 21082AU  22011.25001157  .00099481  00000-0  82858-3 0  9998,2 49172  69.9982 151.9384 0003617 278.1825 299.5869 15.69651004 18799,6738.033,91.74,362.335,357.46,0.0
49172.0,STARLINK-3091,PAYLOAD,2022-01-11 14:00:01,15.69726256,0.0003699,69.9985,151.0016,280.9124,19.9119,-0.00012118,-0.0001464,0.0,0 STARLINK-3091,1 49172U 21082AU  22011.58334491 -.00014640  00000-0 -12118-3 0  9992,2 49172  69.9985 151.0016 0003699 280.9124  19.9119 15.69726256  3684,6737.816999999999,91.736,362.175,357.19,0.0
49172.0,STARLINK-3091,PAYLOAD,2022-01-11 22:00:00,15.69737226,0.0003798,69.9979,150.0646,284.3813,99.5345,3.8286e-05,4.358e-05,0.0,0 STARLINK-3091,1 49172U 21082AU  22011.91667824  .00004358  00000-0  38286-4 0  9996,2 49172  69.9979 150.0646 0003798 284.3813  99.5345 15.69737226 18903,6737.786,91.735,362.21,357.092,0.0
49172.0,STARLINK-3091,PAYLOAD,2022-01-12 14:00:01,15.69761897,0.0003806,69.9981,148.1905,281.4484,268.6999,-1.3896e-05,-1.872e-05,0.0,0 STARLINK-3091,1 49172U 21082AU  22012.58334491 -.00001872  00000-0 -13896-4 0  9991,2 49172  69.9981 148.1905 0003806 281.4484 268.6999 15.69761897  3699,6737.715,91.734,362.145,357.016,0.0
49172.0,STARLINK-3091,PAYLOAD,2022-01-12 22:00:00,15.69787061,0.0003766,69.9979,147.2534,284.7801,348.5073,-3.7586e-05,-4.704e-05,0.0,0 STARLINK-3091,1 49172U 21082AU  22012.91667824 -.00004704  00000-0 -37586-4 0  9996,2 49172  69.9979 147.2534 0003766 284.7801 348.5073 15.69787061 19057,6737.643,91.732,362.046,356.971,0.0
49172.0,STARLINK-3091,PAYLOAD,2022-01-13 14:00:01,15.69761475,0.0003602,69.9987,145.3797,283.2076,156.421,-4.6759e-05,-5.794e-05,0.0,0 STARLINK-3091,1 49172U 21082AU  22013.58334491 -.00005794  00000-0 -46759-4 0  9993,2 49172  69.9987 145.3797 0003602 283.2076 156.4210 15.69761475  3696,6737.715999999999,91.734,362.008,357.155,0.0
49172.0,STARLINK-3091,PAYLOAD,2022-01-13 22:00:00,15.69784354,0.0003618,69.9983,144.4426,285.8521,236.9032,-0.00015096,-0.00018221,0.0,0 STARLINK-3091,1 49172U 21082AU  22013.91667824 -.00018221  00000-0 -15096-3 0  9997,2 49172  69.9983 144.4426 0003618 285.8521 236.9032 15.69784354  3665,6737.651,91.732,361.954,357.07800000000015,0.0
49172.0,STARLINK-3091,PAYLOAD,2022-01-14 06:00:00,15.69758689,0.0003481999999999,69.9984,143.5056,279.8288,326.087,-8.667e-05,-0.0001055,0.0,0 STARLINK-3091,1 49172U 21082AU  22014.25001157 -.00010550  00000-0 -86670-4 0  9990,2 49172  69.9984 143.5056 0003482 279.8288 326.0870 15.69758689 19263,6737.724,91.734,361.936,357.24300000000005,0.0
49172.0,STARLINK-3091,PAYLOAD,2022-01-14 14:00:01,15.69739774,0.0003424,69.9986,142.5686,284.9554,44.1049,1.4467e-05,1.514e-05,0.0,0 STARLINK-3091,1 49172U 21082AU  22014.58334491  .00001514  00000-0  14467-4 0  9999,2 49172  69.9986 142.5686 0003424 284.9554  44.1049 15.69739774  3681,6737.779,91.735,361.951,357.337,0.0
49172.0,STARLINK-3091,PAYLOAD,2022-01-14 22:00:00,15.69787947,0.0003488,69.9984,141.6316,288.4845,123.689,-0.00041043,-0.00049002,0.0,0 STARLINK-3091,1 49172U 21082AU  22014.91667824 -.00049002  00000-0 -41043-3 0  9990,2 49172  69.9984 141.6316 0003488 288.4845 123.6890 15.69787947  3694,6737.641,91.732,361.856,357.156,0.0
49172.0,STARLINK-3091,PAYLOAD,2022-01-15 06:00:00,15.69712214,0.000347,69.9993,140.6982,280.7862,214.4622,0.00049037,0.00058648,0.0,0 STARLINK-3091,1 49172U 21082AU  22015.25001157  .00058648  00000-0  49037-3 0  9994,2 49172  69.9993 140.6982 0003470 280.7862 214.4622 15.69712214 19422,6737.857,91.737,362.06,357.384,0.0
49172.0,STARLINK-3091,PAYLOAD,2022-01-15 14:00:01,15.69765356,0.0003731,69.9994,139.7579,286.5017,291.9469,0.00025211,0.00030013,0.0,0 STARLINK-3091,1 49172U 21082AU  22015.58335648  .00030013  00000-0  25211-3 0  9999,2 49172  69.9994 139.7579 0003731 286.5017 291.9469 15.69765356  3696,6737.705,91.733,362.084,357.057,0.0
